ASTRA_L_00003012-21
1 38448U 23035GR  26070.40777778  .00000000  00000+0  00000-0 0  9991
2 38448  55.0000  70.7143 0000000   0.0000 233.8393 14.57888518    18
ASTRA_L_00003012-22
1 38449U 25867AR  26070.40777778  .00000000  00000+0  00000-0 0  9997
2 38449  55.0000  70.7143 0000000   0.0000 245.0893 14.57888518    19
ASTRA_L_00003012-23
1 38450U 22958HA  26070.40777778  .00000000  00000+0  00000-0 0  9997
2 38450  55.0000  70.7143 0000000   0.0000 256.3393 14.57888518    11
ASTRA_L_00003012-24
1 38451U 25616MA  26070.40777778  .00000000  00000+0  00000-0 0  9992
2 38451  55.0000  70.7143 0000000   0.0000 267.5893 14.57888518    11
ASTRA_L_00003012-25
1 38452U 25868RL  26070.40777778  .00000000  00000+0  00000-0 0  9992
2 38452  55.0000  70.7143 0000000   0.0000 278.8393 14.57888518    12
ASTRA_L_00003012-26
1 38453U 23284QE  26070.40777778  .00000000  00000+0  00000-0 0  9993
2 38453  55.0000  70.7143 0000000   0.0000 290.0893 14.57888518    14
ASTRA_L_00003012-27
1 38454U 24825HD  26070.40777778  .00000000  00000+0  00000-0 0  9996
2 38454  55.0000  70.7143 0000000   0.0000 301.3393 14.57888518    16
ASTRA_L_00003012-28
1 38455U 25015XS  26070.40777778  .00000000  00000+0  00000-0 0  9999
2 38455  55.0000  70.7143 0000000   0.0000 312.5893 14.57888518    16
ASTRA_L_00003012-29
1 38456U 24926NQ  26070.40777778  .00000000  00000+0  00000-0 0  9990
2 38456  55.0000  70.7143 0000000   0.0000 323.8393 14.57888518    17
ASTRA_L_00003012-30
1 38457U 26784XR  26070.40777778  .00000000  00000+0  00000-0 0  9995
2 38457  55.0000  70.7143 0000000   0.0000 335.0893 14.57888518    18
ASTRA_L_00003012-31
1 38458U 23053DJ  26070.40777778  .00000000  00000+0  00000-0 0  9992
2 38458  55.0000  70.7143 0000000   0.0000 346.3393 14.57888518    19
ASTRA_L_00003012-32
1 38459U 26457MA  26070.40777778  .00000000  00000+0  00000-0 0  9994
2 38459  55.0000  70.7143 0000000   0.0000 357.5893 14.57888518    19
ASTRA_L_00003013-01
1 38460U 24298VI  26070.40777778  .00000000  00000+0  00000-0 0  9997
2 38460  55.0000  77.1429 0000000   0.0000   9.6429 14.57888518    19
ASTRA_L_00003013-02
1 38461U 23518JG  26070.40777778  .00000000  00000+0  00000-0 0  9992
2 38461  55.0000  77.1429 0000000   0.0000  20.8929 14.57888518    10
ASTRA_L_00003013-03
1 38462U 24743AK  26070.40777778  .00000000  00000+0  00000-0 0  9994
2 38462  55.0000  77.1429 0000000   0.0000  32.1429 14.57888518    12
ASTRA_L_00003013-04
1 38463U 25651Y   26070.40777778  .00000000  00000+0  00000-0 0  9994
2 38463  55.0000  77.1429 0000000   0.0000  43.3929 14.57888518    12
ASTRA_L_00003013-05
1 38464U 26460WC  26070.40777778  .00000000  00000+0  00000-0 0  9994
2 38464  55.0000  77.1429 0000000   0.0000  54.6429 14.57888518    13
ASTRA_L_00003013-06
1 38465U 23414UR  26070.40777778  .00000000  00000+0  00000-0 0  9991
2 38465  55.0000  77.1429 0000000   0.0000  65.8929 14.57888518    13
ASTRA_L_00003013-07
1 38466U 24177UJ  26070.40777778  .00000000  00000+0  00000-0 0  9999
2 38466  55.0000  77.1429 0000000   0.0000  77.1429 14.57888518    15
ASTRA_L_00003013-08
1 38467U 22049PG  26070.40777778  .00000000  00000+0  00000-0 0  9996
2 38467  55.0000  77.1429 0000000   0.0000  88.3929 14.57888518    15
ASTRA_L_00003013-09
1 38468U 24939ZD  26070.40777778  .00000000  00000+0  00000-0 0  9997
2 38468  55.0000  77.1429 0000000   0.0000  99.6429 14.57888518    16
ASTRA_L_00003013-10
1 38469U 23144WT  26070.40777778  .00000000  00000+0  00000-0 0  9995
2 38469  55.0000  77.1429 0000000   0.0000 110.8929 14.57888518    18
ASTRA_L_00003013-11
1 38470U 25316QW  26070.40777778  .00000000  00000+0  00000-0 0  9990
2 38470  55.0000  77.1429 0000000   0.0000 122.1429 14.57888518    11
ASTRA_L_00003013-12
1 38471U 26585BT  26070.40777778  .00000000  00000+0  00000-0 0  9990
2 38471  55.0000  77.1429 0000000   0.0000 133.3929 14.57888518    11
ASTRA_L_00003013-13
1 38472U 26495DL  26070.40777778  .00000000  00000+0  00000-0 0  9991
2 38472  55.0000  77.1429 0000000   0.0000 144.6429 14.57888518    12
ASTRA_L_00003013-14
1 38473U 22041SQ  26070.40777778  .00000000  00000+0  00000-0 0  9995
2 38473  55.0000  77.1429 0000000   0.0000 155.8929 14.57888518    12
ASTRA_L_00003013-15
1 38474U 25197NQ  26070.40777778  .00000000  00000+0  00000-0 0  9991
2 38474  55.0000  77.1429 0000000   0.0000 167.1429 14.57888518    14
ASTRA_L_00003013-16
1 38475U 26523HY  26070.40777778  .00000000  00000+0  00000-0 0  9996
2 38475  55.0000  77.1429 0000000   0.0000 178.3929 14.57888518    14
ASTRA_L_00003013-17
1 38476U 26814PK  26070.40777778  .00000000  00000+0  00000-0 0  9990
2 38476  55.0000  77.1429 0000000   0.0000 189.6429 14.57888518    15
ASTRA_L_00003013-18
1 38477U 22584EL  26070.40777778  .00000000  00000+0  00000-0 0  9991
2 38477  55.0000  77.1429 0000000   0.0000 200.8929 14.57888518    17
ASTRA_L_00003013-19
1 38478U 25182QB  26070.40777778  .00000000  00000+0  00000-0 0  9999
2 38478  55.0000  77.1429 0000000   0.0000 212.1429 14.57888518    19
ASTRA_L_00003013-20
1 38479U 25670HQ  26070.40777778  .00000000  00000+0  00000-0 0  9992
2 38479  55.0000  77.1429 0000000   0.0000 223.3929 14.57888518    19
ASTRA_L_00003013-21
1 38480U 22200CI  26070.40777778  .00000000  00000+0  00000-0 0  9990
2 38480  55.0000  77.1429 0000000   0.0000 234.6429 14.57888518    11
ASTRA_L_00003013-22
1 38481U 22941OL  26070.40777778  .00000000  00000+0  00000-0 0  9993
2 38481  55.0000  77.1429 0000000   0.0000 245.8929 14.57888518    11
ASTRA_L_00003013-23
1 38482U 25573HS  26070.40777778  .00000000  00000+0  00000-0 0  9998
2 38482  55.0000  77.1429 0000000   0.0000 257.1429 14.57888518    13
ASTRA_L_00003013-24
1 38483U 25633QT  26070.40777778  .00000000  00000+0  00000-0 0  9996
2 38483  55.0000  77.1429 0000000   0.0000 268.3929 14.57888518    13
ASTRA_L_00003013-25
1 38484U 23562JC  26070.40777778  .00000000  00000+0  00000-0 0  9996
2 38484  55.0000  77.1429 0000000   0.0000 279.6429 14.57888518    14
ASTRA_L_00003013-26
1 38485U 26607VK  26070.40777778  .00000000  00000+0  00000-0 0  9990
2 38485  55.0000  77.1429 0000000   0.0000 290.8929 14.57888518    15
ASTRA_L_00003013-27
1 38486U 22626ZP  26070.40777778  .00000000  00000+0  00000-0 0  9998
2 38486  55.0000  77.1429 0000000   0.0000 302.1429 14.57888518    18
ASTRA_L_00003013-28
1 38487U 22740NJ  26070.40777778  .00000000  00000+0  00000-0 0  9996
2 38487  55.0000  77.1429 0000000   0.0000 313.3929 14.57888518    18
ASTRA_L_00003013-29
1 38488U 25723JS  26070.40777778  .00000000  00000+0  00000-0 0  9991
2 38488  55.0000  77.1429 0000000   0.0000 324.6429 14.57888518    19
ASTRA_L_00003013-30
1 38489U 22205UO  26070.40777778  .00000000  00000+0  00000-0 0  9994
2 38489  55.0000  77.1429 0000000   0.0000 335.8929 14.57888518    19
ASTRA_L_00003013-31
1 38490U 23195YS  26070.40777778  .00000000  00000+0  00000-0 0  9995
2 38490  55.0000  77.1429 0000000   0.0000 347.1429 14.57888518    12
ASTRA_L_00003013-32
1 38491U 24022FA  26070.40777778  .00000000  00000+0  00000-0 0  9996
2 38491  55.0000  77.1429 0000000   0.0000 358.3929 14.57888518    12
ASTRA_L_00003014-01
1 38492U 25130FA  26070.40777778  .00000000  00000+0  00000-0 0  9998
2 38492  55.0000  83.5714 0000000   0.0000  10.4464 14.57888518    11
ASTRA_L_00003014-02
1 38493U 23262TU  26070.40777778  .00000000  00000+0  00000-0 0  9993
2 38493  55.0000  83.5714 0000000   0.0000  21.6964 14.57888518    11
ASTRA_L_00003014-03
1 38494U 22782KU  26070.40777778  .00000000  00000+0  00000-0 0  9990
2 38494  55.0000  83.5714 0000000   0.0000  32.9464 14.57888518    12
ASTRA_L_00003014-04
1 38495U 24166YH  26070.40777778  .00000000  00000+0  00000-0 0  9999
2 38495  55.0000  83.5714 0000000   0.0000  44.1964 14.57888518    13
ASTRA_L_00003014-05
1 38496U 24328FE  26070.40777778  .00000000  00000+0  00000-0 0  9990
2 38496  55.0000  83.5714 0000000   0.0000  55.4464 14.57888518    14
ASTRA_L_00003014-06
1 38497U 26839YK  26070.40777778  .00000000  00000+0  00000-0 0  9990
2 38497  55.0000  83.5714 0000000   0.0000  66.6964 14.57888518    14
ASTRA_L_00003014-07
1 38498U 23719MG  26070.40777778  .00000000  00000+0  00000-0 0  9995
2 38498  55.0000  83.5714 0000000   0.0000  77.9464 14.57888518    15
ASTRA_L_00003014-08
1 38499U 22441XY  26070.40777778  .00000000  00000+0  00000-0 0  9997
2 38499  55.0000  83.5714 0000000   0.0000  89.1964 14.57888518    16
ASTRA_L_00003014-09
1 38500U 23464CO  26070.40777778  .00000000  00000+0  00000-0 0  9996
2 38500  55.0000  83.5714 0000000   0.0000 100.4464 14.57888518    11
ASTRA_L_00003014-10
1 38501U 25741YT  26070.40777778  .00000000  00000+0  00000-0 0  9997
2 38501  55.0000  83.5714 0000000   0.0000 111.6964 14.57888518    11
ASTRA_L_00003014-11
1 38502U 26958AE  26070.40777778  .00000000  00000+0  00000-0 0  9999
2 38502  55.0000  83.5714 0000000   0.0000 122.9464 14.57888518    12
ASTRA_L_00003014-12
1 38503U 23532GB  26070.40777778  .00000000  00000+0  00000-0 0  9995
2 38503  55.0000  83.5714 0000000   0.0000 134.1964 14.57888518    13
ASTRA_L_00003014-13
1 38504U 24640YJ  26070.40777778  .00000000  00000+0  00000-0 0  9997
2 38504  55.0000  83.5714 0000000   0.0000 145.4464 14.57888518    14
ASTRA_L_00003014-14
1 38505U 26790HJ  26070.40777778  .00000000  00000+0  00000-0 0  9996
2 38505  55.0000  83.5714 0000000   0.0000 156.6964 14.57888518    14
ASTRA_L_00003014-15
1 38506U 25293H   26070.40777778  .00000000  00000+0  00000-0 0  9994
2 38506  55.0000  83.5714 0000000   0.0000 167.9464 14.57888518    15
ASTRA_L_00003014-16
1 38507U 26781ME  26070.40777778  .00000000  00000+0  00000-0 0  9998
2 38507  55.0000  83.5714 0000000   0.0000 179.1964 14.57888518    16
ASTRA_L_00003014-17
1 38508U 26123TS  26070.40777778  .00000000  00000+0  00000-0 0  9999
2 38508  55.0000  83.5714 0000000   0.0000 190.4464 14.57888518    18
ASTRA_L_00003014-18
1 38509U 24673NX  26070.40777778  .00000000  00000+0  00000-0 0  9998
2 38509  55.0000  83.5714 0000000   0.0000 201.6964 14.57888518    19
